CCSDS_OMM_VERS = 2.0
CREATION_DATE  = 
ORIGINATOR     = 

OBJECT_NAME    = IDEFIX & ARIANE 42P R/B
OBJECT_ID      = 2002-021B
CENTER_NAME    = EARTH
REF_FRAME      = TEME
TIME_SYSTEM    = UTC
MEAN_ELEMENT_THEORY = SGP/SGP4

EPOCH          = 2026-02-19T19:20:40.703424
MEAN_MOTION    = 14.31012476
ECCENTRICITY   = .00107399
INCLINATION    = 98.5855
RA_OF_ASC_NODE = 349.6281
ARG_OF_PERICENTER = 238.0664
MEAN_ANOMALY   = 121.9475

EPHEMERIS_TYPE = 0
CLASSIFICATION_TYPE = U
NORAD_CAT_ID   = 27422
ELEMENT_SET_NO = 999
REV_AT_EPOCH   = 24146
BSTAR          = .11396033E-3
MEAN_MOTION_DOT = .256E-5
MEAN_MOTION_DDOT = 0

CCSDS_OMM_VERS = 2.0
CREATION_DATE  = 
ORIGINATOR     = 

OBJECT_NAME    = AQUA
OBJECT_ID      = 2002-022A
CENTER_NAME    = EARTH
REF_FRAME      = TEME
TIME_SYSTEM    = UTC
MEAN_ELEMENT_THEORY = SGP/SGP4

EPOCH          = 2026-02-20T05:47:55.226688
MEAN_MOTION    = 14.61930145
ECCENTRICITY   = .0001086
INCLINATION    = 98.4144
RA_OF_ASC_NODE = 18.2933
ARG_OF_PERICENTER = 47.3163
MEAN_ANOMALY   = 65.2893

EPHEMERIS_TYPE = 0
CLASSIFICATION_TYPE = U
NORAD_CAT_ID   = 27424
ELEMENT_SET_NO = 999
REV_AT_EPOCH   = 26618
BSTAR          = .18407552E-3
MEAN_MOTION_DOT = .872E-5
MEAN_MOTION_DDOT = 0

CCSDS_OMM_VERS = 2.0
CREATION_DATE  = 
ORIGINATOR     = 

OBJECT_NAME    = CZ-4B R/B
OBJECT_ID      = 2002-024C
CENTER_NAME    = EARTH
REF_FRAME      = TEME
TIME_SYSTEM    = UTC
MEAN_ELEMENT_THEORY = SGP/SGP4

EPOCH          = 2026-02-20T02:24:20.223648
MEAN_MOTION    = 14.14544411
ECCENTRICITY   = .00510825
INCLINATION    = 98.8881
RA_OF_ASC_NODE = 104.5922
ARG_OF_PERICENTER = 73.5010
MEAN_ANOMALY   = 316.5461

EPHEMERIS_TYPE = 0
CLASSIFICATION_TYPE = U
NORAD_CAT_ID   = 27432
ELEMENT_SET_NO = 999
REV_AT_EPOCH   = 22675
BSTAR          = .41223682E-4
MEAN_MOTION_DOT = .36E-6
MEAN_MOTION_DDOT = 0

CCSDS_OMM_VERS = 2.0
CREATION_DATE  = 
ORIGINATOR     = 

OBJECT_NAME    = MIDORI II (ADEOS-II)
OBJECT_ID      = 2002-056A
CENTER_NAME    = EARTH
REF_FRAME      = TEME
TIME_SYSTEM    = UTC
MEAN_ELEMENT_THEORY = SGP/SGP4

EPOCH          = 2026-02-20T17:20:20.499936
MEAN_MOTION    = 14.29271358
ECCENTRICITY   = .000208
INCLINATION    = 98.7740
RA_OF_ASC_NODE = 10.0863
ARG_OF_PERICENTER = 66.0881
MEAN_ANOMALY   = 294.0518

EPHEMERIS_TYPE = 0
CLASSIFICATION_TYPE = U
NORAD_CAT_ID   = 27597
ELEMENT_SET_NO = 999
REV_AT_EPOCH   = 20787
BSTAR          = .11444E-3
MEAN_MOTION_DOT = .246E-5
MEAN_MOTION_DDOT = 0

CCSDS_OMM_VERS = 2.0
CREATION_DATE  = 
ORIGINATOR     = 

OBJECT_NAME    = H-2A R/B
OBJECT_ID      = 2002-056E
CENTER_NAME    = EARTH
REF_FRAME      = TEME
TIME_SYSTEM    = UTC
MEAN_ELEMENT_THEORY = SGP/SGP4

EPOCH          = 2026-02-20T17:59:33.449280
MEAN_MOTION    = 14.33748134
ECCENTRICITY   = .006946
INCLINATION    = 98.3172
RA_OF_ASC_NODE = 12.7635
ARG_OF_PERICENTER = 211.2934
MEAN_ANOMALY   = 213.2408

EPHEMERIS_TYPE = 0
CLASSIFICATION_TYPE = U
NORAD_CAT_ID   = 27601
ELEMENT_SET_NO = 999
REV_AT_EPOCH   = 21168
BSTAR          = .98913E-4
MEAN_MOTION_DOT = .24E-5
MEAN_MOTION_DDOT = 0

CCSDS_OMM_VERS = 2.0
CREATION_DATE  = 
ORIGINATOR     = 

OBJECT_NAME    = CZ-4B R/B
OBJECT_ID      = 2003-049C
CENTER_NAME    = EARTH
REF_FRAME      = TEME
TIME_SYSTEM    = UTC
MEAN_ELEMENT_THEORY = SGP/SGP4

EPOCH          = 2026-02-19T23:38:38.863392
MEAN_MOTION    = 14.55000453
ECCENTRICITY   = .0047047
INCLINATION    = 98.6862
RA_OF_ASC_NODE = 45.1981
ARG_OF_PERICENTER = 286.2755
MEAN_ANOMALY   = 73.3268

EPHEMERIS_TYPE = 0
CLASSIFICATION_TYPE = U
NORAD_CAT_ID   = 28059
ELEMENT_SET_NO = 999
REV_AT_EPOCH   = 18402
BSTAR          = .10084E-3
MEAN_MOTION_DOT = .388E-5
MEAN_MOTION_DDOT = 0

CCSDS_OMM_VERS = 2.0
CREATION_DATE  = 
ORIGINATOR     = 

OBJECT_NAME    = CZ-2C R/B
OBJECT_ID      = 2004-012C
CENTER_NAME    = EARTH
REF_FRAME      = TEME
TIME_SYSTEM    = UTC
MEAN_ELEMENT_THEORY = SGP/SGP4

EPOCH          = 2026-02-20T03:15:04.975200
MEAN_MOTION    = 15.62376334
ECCENTRICITY   = .00147059
INCLINATION    = 97.7269
RA_OF_ASC_NODE = 114.7916
ARG_OF_PERICENTER = 19.0803
MEAN_ANOMALY   = 341.1002

EPHEMERIS_TYPE = 0
CLASSIFICATION_TYPE = U
NORAD_CAT_ID   = 28222
ELEMENT_SET_NO = 999
REV_AT_EPOCH   = 20153
BSTAR          = .5021136E-3
MEAN_MOTION_DOT = .44709E-3
MEAN_MOTION_DDOT = 0

CCSDS_OMM_VERS = 2.0
CREATION_DATE  = 
ORIGINATOR     = 

OBJECT_NAME    = SL-16 R/B
OBJECT_ID      = 2004-021B
CENTER_NAME    = EARTH
REF_FRAME      = TEME
TIME_SYSTEM    = UTC
MEAN_ELEMENT_THEORY = SGP/SGP4

EPOCH          = 2026-02-20T16:45:20.691360
MEAN_MOTION    = 14.14597274
ECCENTRICITY   = .0003286
INCLINATION    = 70.9989
RA_OF_ASC_NODE = 268.1527
ARG_OF_PERICENTER = 49.2676
MEAN_ANOMALY   = 310.8731

EPHEMERIS_TYPE = 0
CLASSIFICATION_TYPE = U
NORAD_CAT_ID   = 28353
ELEMENT_SET_NO = 999
REV_AT_EPOCH   = 12043
BSTAR          = .15673E-3
MEAN_MOTION_DOT = .254E-5
MEAN_MOTION_DDOT = 0

CCSDS_OMM_VERS = 2.0
CREATION_DATE  = 
ORIGINATOR     = 

OBJECT_NAME    = CZ-4B R/B
OBJECT_ID      = 2004-035C
CENTER_NAME    = EARTH
REF_FRAME      = TEME
TIME_SYSTEM    = UTC
MEAN_ELEMENT_THEORY = SGP/SGP4

EPOCH          = 2026-02-20T13:33:58.264416
MEAN_MOTION    = 15.28724589
ECCENTRICITY   = .0033169
INCLINATION    = 97.3522
RA_OF_ASC_NODE = 86.0151
ARG_OF_PERICENTER = 32.3982
MEAN_ANOMALY   = 327.9285

EPHEMERIS_TYPE = 0
CLASSIFICATION_TYPE = U
NORAD_CAT_ID   = 28415
ELEMENT_SET_NO = 999
REV_AT_EPOCH   = 17729
BSTAR          = .26766E-3
MEAN_MOTION_DOT = .7522E-4
MEAN_MOTION_DDOT = 0

CCSDS_OMM_VERS = 2.0
CREATION_DATE  = 
ORIGINATOR     = 

OBJECT_NAME    = CZ-2C R/B
OBJECT_ID      = 2004-046B
CENTER_NAME    = EARTH
REF_FRAME      = TEME
TIME_SYSTEM    = UTC
MEAN_ELEMENT_THEORY = SGP/SGP4

EPOCH          = 2026-02-20T17:27:02.153664
MEAN_MOTION    = 14.26985764
ECCENTRICITY   = .013883
INCLINATION    = 98.1991
RA_OF_ASC_NODE = 327.7654
ARG_OF_PERICENTER = 204.6155
MEAN_ANOMALY   = 154.8359

EPHEMERIS_TYPE = 0
CLASSIFICATION_TYPE = U
NORAD_CAT_ID   = 28480
ELEMENT_SET_NO = 999
REV_AT_EPOCH   = 10608
BSTAR          = .53795E-4
MEAN_MOTION_DOT = .103E-5
MEAN_MOTION_DDOT = 0

CCSDS_OMM_VERS = 2.0
CREATION_DATE  = 
ORIGINATOR     = 

OBJECT_NAME    = ARIANE 5 R/B
OBJECT_ID      = 2004-049H
CENTER_NAME    = EARTH
REF_FRAME      = TEME
TIME_SYSTEM    = UTC
MEAN_ELEMENT_THEORY = SGP/SGP4

EPOCH          = 2026-02-20T10:53:07.214208
MEAN_MOTION    = 14.85229890
ECCENTRICITY   = .0085076
INCLINATION    = 98.2597
RA_OF_ASC_NODE = 219.2688
ARG_OF_PERICENTER = 47.5666
MEAN_ANOMALY   = 313.2702

EPHEMERIS_TYPE = 0
CLASSIFICATION_TYPE = U
NORAD_CAT_ID   = 28499
ELEMENT_SET_NO = 999
REV_AT_EPOCH   = 14323
BSTAR          = .84098E-4
MEAN_MOTION_DOT = .705E-5
MEAN_MOTION_DDOT = 0

CCSDS_OMM_VERS = 2.0
CREATION_DATE  = 
ORIGINATOR     = 

OBJECT_NAME    = CZ-2D R/B
OBJECT_ID      = 2005-024B
CENTER_NAME    = EARTH
REF_FRAME      = TEME
TIME_SYSTEM    = UTC
MEAN_ELEMENT_THEORY = SGP/SGP4

EPOCH          = 2026-02-20T13:47:54.580128
MEAN_MOTION    = 15.58534469
ECCENTRICITY   = .0007621
INCLINATION    = 97.3609
RA_OF_ASC_NODE = 66.1147
ARG_OF_PERICENTER = 87.8657
MEAN_ANOMALY   = 272.3471

EPHEMERIS_TYPE = 0
CLASSIFICATION_TYPE = U
NORAD_CAT_ID   = 28738
ELEMENT_SET_NO = 999
REV_AT_EPOCH   = 13711
BSTAR          = .47348E-3
MEAN_MOTION_DOT = .36226E-3
MEAN_MOTION_DDOT = 0

